recordId,uid,name,phone,email,address,city
D8A72D6E-1BBE-45E3-B15C-8A63D756C6A8,implicit1,Shad W. Campbell,3235638563,pharetra.nam@google.ca,303-7563 Commodo Avenue,Hattiesburg
EF1DA505-DE44-A287-5CAD-14445843E937,implicit2,Adrian Miranda,1-235-321-3339,sit.amet@protonmail.net,Ap #551-2879 Suspendisse Avenue,Salem
5C6B9590-92C7-75DA-68E9-75203C06B837,implicit3,William X. Bean,(830) 837-9777,ac@outlook.net,Ap #117-5214 Ornare Road,Chattanooga
1E32C0EC-AE63-CAAE-C69B-16689E72DE48,implicit4,Amal Warren,7646257987,nec.malesuada.ut@aol.couk,Ap #316-6332 Mauris Ave,Juneau
7C488E5B-5449-8455-2787-901F22A76319,implicit5,Pandora Lewis,(828) 764-4567,eu.placerat.eget@hotmail.com,9574 Arcu. Street,San Antonio
6E58D522-368E-7E23-2D72-713233DDA20F,implicit6,Montana K. Gaines,1-454-456-4583,pharetra@protonmail.couk,379-7367 Lacus. Av.,Fairbanks
EE20CADD-CA1C-F5A9-8531-EE96DB57F213,implicit7,"Mcmahon, Yasir",9621754343,elit.pellentesque@icloud.edu,7367 Lacus. St.,Olympia
17FA62F9-B215-BCCD-0647-1695EB23C8DE,implicit8,Cole Bruce,(605) 824-3375,magna.ut@outlook.net,8788 Est Rd.,Gary
62D36BE5-13FC-C976-06D3-8E9184524115,implicit9,Indira U. Stanley,1-135-151-7984,orci.tincidunt@outlook.couk,Ap #590-7789 Convallis Rd.,Orlando
B1D58468-5848-8E97-A71B-CEAF51C2EACB,implicit10,"Durham, Ocean",7591977333,et.ultrices.posuere@outlook.org,Ap #759-1517 Pellentesque St.,New Orleans
207BE332-C7E2-E1AD-109D-E42E86564C95,implicit11,"Mcgee, Jelani",1-868-536-2386,aliquet.libero.integer@google.net,445-9715 Quisque Avenue,Great Falls
F89C2382-9D60-8BED-57BC-74C2422CB975,implicit12,"Haley, Lucas",1-242-737-1591,magna@outlook.com,402-4867 Sed Rd.,Auburn
F88B6522-32AC-7D59-8573-616F77C35E7D,implicit13,Selma N. Cherry,(352) 831-4263,tellus@google.org,Ap #535-2445 Luctus Ave,Orlando
EBF83446-BEB1-FA0C-C9DD-85A1F505BCCD,implicit14,Hannah T. Foster,(856) 933-6250,non.nisi@aol.couk,869-2346 Nisi. Rd.,South Portland
8E9D329B-3449-3A5B-71D1-CAE83E680B62,implicit15,"Herrera, Marny F.",(874) 787-4662,dictum.sapien@google.net,Ap #489-9876 Quam Rd.,Kailua
45E7A211-748A-A75B-9DA6-64D78043CEFB,implicit16,Thor Ware,(803) 536-3838,ut@hotmail.com,Ap #506-1090 Tellus. Ave,Grand Rapids
4A3E02E7-393A-C212-091C-2E9B56713A19,implicit17,Felix Holland,1-636-571-5828,fermentum.arcu.vestibulum@icloud.net,Ap #760-2128 Blandit Rd.,Fort Wayne
DE784A2A-916B-30A1-E9AB-A2AD771C218E,implicit18,Rana Ballard,3664272635,enim.nec.tempus@google.couk,Ap #570-9149 Adipiscing Rd.,Fort Smith
ABC7BBCA-58B0-6343-DDB2-C9B613656D65,implicit19,"Manning, Denise A.",1-931-506-9439,neque.venenatis@icloud.org,Ap #835-584 Eget Rd.,Colorado Springs
D66058C8-71CC-AF02-99BC-4ECB1ACE7F6C,implicit20,Dillon Maldonado,1-668-345-6901,dapibus.rutrum@icloud.net,"Ap #151-8949 A, Street",Columbus
1738B992-497C-4EAB-338C-7256FE76A44E,implicit21,"Hoover, Marny",(985) 515-3362,auctor.nunc.nulla@protonmail.com,Ap #984-4471 Scelerisque Street,Lewiston
31C565B2-BB65-943A-16B6-B8218481CE43,implicit22,Zephr R. Richardson,(128) 287-7378,vel.lectus.cum@aol.couk,Ap #249-5907 Felis St.,Juneau
BDB23955-ABEE-C334-4093-8B824CD3CFB8,implicit23,"Kirk, Vance D.",4383839908,commodo.hendrerit@aol.net,Ap #498-2812 A St.,New Orleans
5E905BB1-E9AB-B579-8780-0BC46283358C,implicit24,Rae Manning,(716) 264-3164,sodales.elit@aol.net,2568 Quisque St.,Idaho Falls
3B07489D-FD69-1A20-4E2C-C986093C819A,implicit25,"O'Neill, Justina",(285) 337-9127,tincidunt.aliquam.arcu@icloud.couk,Ap #946-9469 Non Street,Duluth
957BEA48-C7C3-DA92-55DD-38BB71E9C039,implicit26,Anne Cannon,2680332682,metus.vitae@yahoo.couk,628-9283 Nunc Av.,Milwaukee
CD64729A-A39D-40DE-10FB-3747AE4429DE,implicit27,Shafira Warner,7837634451,eu.arcu@hotmail.org,Ap #539-348 Quisque St.,Ketchikan
D429AE6A-364E-A3A9-218A-3291C75E2DD6,implicit28,"Rice, Uta D.",1-488-363-5378,laoreet@aol.net,Ap #245-8750 Risus Street,Miami
CBB1DB8D-D853-013E-BE44-E92B384B6B5D,implicit29,Quin Garrison,(286) 258-5247,sodales@outlook.org,Ap #416-6248 Purus. Road,Tulsa
693C21A6-311B-ACA5-2B25-FB82E2C988DB,implicit30,"Silva, Josiah",(908) 234-7653,sit.amet@aol.net,"Ap #356-7752 Amet, Ave",San Francisco
EABB7BEC-69E5-3A37-C3BC-75E30CD1A176,implicit31,"Kelly, Arsenio I.",2482541836,in@hotmail.org,587-6029 Lobortis Av.,Nashville
3075A38A-51B4-A511-90E8-4D7687DE7E06,implicit32,"Frost, Naida K.",1-358-825-3536,lectus.pede@icloud.edu,"P.O. Box 603, 5780 Ullamcorper. Rd.",Pittsburgh
97AED71C-E7C4-24E4-5636-3B0D8994F42A,implicit33,Oren Frost,9303926261,nisi.dictum@google.couk,470-2389 Mauris Avenue,Colchester
8579F3AB-3908-FB46-E08B-917D1F939054,implicit34,"Perez, Danielle",6933659779,nunc.est@google.com,9269 Id Av.,Mobile
A1A293BA-41CB-6721-3C65-4BED363989A1,implicit35,"Fields, Josephine J.",1-285-346-9522,sed.consequat@outlook.edu,6083 Malesuada. Av.,Bellevue
7CBD440E-895B-A562-6F6D-D7CA86514AB2,implicit36,Christen G. Mcmahon,(666) 929-1223,nec.diam@icloud.com,890-6428 Lorem Street,Spokane
7A91A569-4460-449B-9C27-08AA7727B571,implicit37,"Clayton, Jason",8393671328,et.netus@outlook.com,302-1842 Nunc Rd.,Norman
BDEE962F-7458-BA25-436B-E91939A244A1,implicit38,"Mayo, Darius P.",1-681-775-5124,aliquam.arcu.aliquam@hotmail.ca,534-226 Dictum Street,Newark
A49B12E9-B4D4-9737-B0D5-8B3F8AA2D2C2,implicit39,"Becker, Venus",1183378265,amet.luctus.vulputate@outlook.couk,Ap #203-3913 Ornare. St.,Allentown
A841F228-059B-4955-70D5-0E18C47F0758,implicit40,"Hill, Tanisha H.",9322678334,sollicitudin.adipiscing@aol.couk,2419 Feugiat Road,Hilo
747B0EB3-3620-A937-72CD-2A2DEC133EB0,implicit41,Richard W. Harris,(516) 762-4556,aliquam@protonmail.edu,7207 Sagittis Av.,Newport News
C3DB8771-C2A0-5F58-D424-29397A351926,implicit42,Tatyana D. Benson,5657375928,felis.eget@icloud.org,342 Consequat Avenue,West Jordan
574EA60D-BA94-0BE5-411F-18A6AF7D7B92,implicit43,"Cook, Dane C.",1-727-215-7583,maecenas.iaculis.aliquet@aol.org,Ap #353-1341 Aliquam Street,Rochester
D3B062FF-822A-4261-F6E1-5BDB4A43A649,implicit44,Peter E. James,(343) 824-4632,malesuada.id.erat@google.edu,"P.O. Box 224, 4170 Fermentum Rd.",Bellevue
5E8E18B9-C8C1-8B6D-9ECA-E326317BCBE0,implicit45,Theodore Parrish,6562238713,vivamus.non@google.net,590-9968 Adipiscing St.,Billings
961E993A-4C9C-9069-D82C-CDC8E84576AC,implicit46,Hector Wiley,(676) 156-7394,integer.vitae@outlook.net,308-9897 Fringilla Road,Erie
4BC5486C-48D0-4D26-8286-19A20D3CCB1F,implicit47,"Cantu, Nyssa",(363) 948-7626,ac.sem.ut@outlook.org,5157 Mauris Street,Little Rock
4EA69ACD-EBEE-7237-7B29-7262A1BB0369,implicit48,Olivia I. Mayer,1-225-755-2462,ultricies.ligula@outlook.couk,Ap #378-6416 Phasellus Av.,Newport News
B4AA1D65-F83D-B30D-2619-51C9CE594655,implicit49,"Crawford, Kato",(616) 445-5247,proin.velit@yahoo.edu,8771 Non Avenue,Virginia Beach
DD88B732-CB17-86C3-5129-4BCD7BAE643C,implicit50,"Stone, Ishmael A.",1-316-670-7917,ac.risus.morbi@protonmail.com,6090 Eget Road,West Valley City
8376DE78-1B35-D2E7-4AD2-A03C817D9783,implicit51,Jocelyn K. Whitney,4688167181,commodo@aol.ca,217-2553 Libero Rd.,Fairbanks
31C6E838-E447-D0B8-6393-CFD051BEDC8A,implicit52,Bradley Huffman,1649250181,accumsan.interdum.libero@icloud.ca,222-8311 Consectetuer Av.,Frankfort
2E512265-42A8-D18E-35AA-4D985CF5E685,implicit53,Aspen Santiago,(736) 826-1313,pretium.aliquet.metus@yahoo.edu,Ap #526-1975 Sit St.,Denver
61786183-5586-48FC-382A-13446CF1E725,implicit54,"Park, Cassady",1-643-656-6423,ut.molestie@hotmail.com,"670-6856 Lorem, Ave",Hartford
9FA984B2-E306-C79A-A805-446EC87A8A81,implicit55,Aladdin Flores,(817) 560-2584,blandit.mattis@icloud.net,875-3322 Arcu Street,Columbia
7695ABF2-8B15-C4BA-D85A-D8E79A74BC38,implicit56,"Robles, Odessa N.",7613772410,sodales.elit.erat@protonmail.com,6063 Dui. Avenue,Anchorage
2EF864D7-33FB-D17B-3675-20E3BA48A89E,implicit57,Hilary Barrett,3644781135,dolor.egestas@google.couk,Ap #350-1487 Laoreet Street,Covington
B7BCD3AA-5A1F-C4BB-13D7-A1993994985A,implicit58,"Mckenzie, Bruce",1-873-863-2987,suspendisse@google.com,444-7136 Sit Ave,Little Rock
D1972850-78EB-8017-E7EE-E0DB48E58938,implicit59,"Thomas, Fitzgerald",(947) 645-9241,eget.ipsum@icloud.ca,4588 Quis Av.,West Jordan
BF17E4E5-E2C6-43B2-D815-B51B5E5A47D0,implicit60,Jillian I. Mcknight,1-485-761-0016,vehicula@protonmail.org,534-4901 Risus. Road,Sterling Heights
B7D89346-968A-A885-61A8-E89FAF583CDB,implicit61,"Durham, Keaton L.",8656475721,scelerisque.mollis@icloud.edu,178-7704 Ante Ave,Aurora
90180E60-DDF1-03FB-C2A9-3D15C760C244,implicit62,Aspen Hughes,(450) 267-7108,curabitur.vel@hotmail.org,820-7894 Sagittis Street,Aurora
35F56131-A734-3B1C-6D78-E99C89A18CE5,implicit63,"Kirkland, Dahlia J.",8388848663,scelerisque@yahoo.ca,5561 Urna Avenue,Bear
C8177AD8-436E-7BBA-2DAE-ED1DAE92991B,implicit64,"Barr, Lamar",1-445-239-1212,consequat@aol.edu,"P.O. Box 120, 9785 Diam. Avenue",Denver
8EB85E1A-06AE-3908-C54C-B42E9C4F4BA5,implicit65,Rinah W. Burris,1-728-473-5784,est@outlook.net,Ap #315-2647 Tincidunt St.,Warren
E10F7350-9B08-89D2-26B2-4C96BDD9D98D,implicit66,Plato Griffith,1-373-594-1705,aliquam.enim@icloud.couk,361-4498 Cum Road,Saint Louis
2C4B72E8-D489-A44B-23E8-4B1C8E7C7846,implicit67,Fletcher Callahan,(444) 739-5647,urna@hotmail.com,"P.O. Box 703, 9984 Fringilla Avenue",Toledo
E9F1C81A-C315-69F2-2496-8C2D1ABB0732,implicit68,"Washington, Kylynn P.",1-837-822-2784,erat.neque@yahoo.com,"P.O. Box 177, 4511 Montes, Avenue",Springfield
D23E635A-DBCE-078C-606E-389E6789A377,implicit69,"Hopper, Lacey",(536) 667-6446,quis.diam.luctus@icloud.ca,Ap #663-3161 Blandit Rd.,Fayetteville
EF8FA12E-7DB9-6989-D7A8-727DA97109D2,implicit70,Zephania U. Fuller,(248) 193-4485,metus@google.edu,579-6862 Nullam St.,Green Bay
D9723747-27E8-8BFE-682D-0AC6B6B0B1E2,implicit71,Victor Mcconnell,(659) 153-4213,non.dui@yahoo.net,"P.O. Box 844, 1528 Nisi. Av.",Aurora
F9542128-1356-7515-17BE-8ADD398D1E94,implicit72,Gail K. Alvarez,(868) 374-4525,pellentesque.ultricies@protonmail.ca,"7390 A, Rd.",Kailua
CDE434DE-CC4E-B432-2563-5C789F499ECD,implicit73,Asher E. Salazar,(411) 281-0798,facilisis.magna@aol.edu,Ap #856-1613 Primis Av.,Jefferson City
33A5464C-2AB9-77F3-5B22-A60CE9647846,implicit74,Amber J. O'brien,1-623-884-5075,integer.mollis@yahoo.edu,Ap #591-9062 Primis St.,Mesa
AF8DB866-5F5C-689C-33E3-57FEA24A2D89,implicit75,"Lynch, Blake U.",(424) 389-8730,velit@hotmail.org,346-1615 Pretium Av.,Anchorage
D5625BCC-342D-AE1A-302E-BFC79D5DEFA8,implicit76,"Christensen, Sybil F.",1-934-531-5267,accumsan@google.net,9506 Sit Street,Springdale
AD77A69C-A8DA-814E-FE31-1ACC61FD3289,implicit77,Chadwick Lester,(677) 823-8601,a@aol.org,5456 Morbi St.,Aurora
6BBCDB1A-A3D3-55E3-CFCA-58CE9F7DFE7A,implicit78,Samuel Hebert,5652758622,a@protonmail.net,"P.O. Box 720, 9423 Gravida. Rd.",Shreveport
719111C2-D861-9C19-1ACB-10424B39841C,implicit79,"Burgess, Lareina",1-345-337-1636,tempor@protonmail.couk,"418-3541 A, Ave",Joliet
87E9C783-4F34-26A6-C6D8-987869743BBD,implicit80,Calista Yang,8332502608,adipiscing.fringilla@icloud.ca,3072 Vivamus Rd.,Overland Park
340F58AE-B54D-DCB4-3BD1-918D4E1E6269,implicit81,Arsenio G. Roth,3480443786,velit.sed@icloud.edu,6635 Pellentesque Road,Jackson
81394124-3EE0-4927-EC22-5EA87B61DC8D,implicit82,"Hall, Rina",6918457361,varius.orci.in@hotmail.com,930 Purus. Street,Miami
1524D330-2856-61C3-91DB-1BD427B441DD,implicit83,Neil O. Lang,(243) 588-0577,turpis.egestas@hotmail.couk,Ap #221-453 At Road,Wyoming
B83A1173-2795-1489-C014-C9E6360FDE8A,implicit84,Steven V. Weaver,4061782148,fusce.mi@google.ca,1050 Cursus Avenue,Huntsville
F6B751FD-C554-DE23-1773-1985B31B2087,implicit85,Thaddeus S. Kaufman,1-637-385-9580,libero.proin@outlook.net,646-8216 Erat. Ave,Rockville
031BE968-D1A9-E240-4683-EFC38FE677CA,implicit86,Jescie D. Marsh,7067428653,turpis.nec@protonmail.org,846-9920 Aliquam St.,Essex
358DC6C7-B493-C577-CB4A-90F60A19DFCB,implicit87,Fitzgerald Farmer,1-447-354-3388,varius.orci@google.edu,"Ap #817-6062 Montes, Rd.",Provo
EF36B8A7-A60F-8C67-3E68-AECE9ADDD68F,implicit88,Vivian May,1-907-841-2216,at.pede.cras@yahoo.com,3339 Vel Ave,Fayetteville
42D57D34-89AE-EAE6-AD7B-A4B11337BB8D,implicit89,Christopher I. Holland,(770) 528-1441,aliquam.arcu.aliquam@aol.edu,2081 Justo. Rd.,Kapolei
7A546C5C-E65D-142E-6B80-18F6C8A94C20,implicit90,"Davidson, Lysandra",1-437-414-8015,mollis.lectus@protonmail.couk,"772-3871 Vestibulum, Rd.",Georgia
3245EEA1-292E-BE6B-C97B-F159D2CF1C15,implicit91,"Conley, Grant",(755) 266-8290,a.sollicitudin@aol.ca,"P.O. Box 885, 3805 Sit Rd.",Dallas
AA974685-7ACE-2789-26D4-04DB2E73FA2A,implicit92,"Snyder, Zorita",6451145645,nulla@outlook.net,271-6203 Nam Rd.,Virginia Beach
32448E74-826A-13EF-103C-C95637D9DCED,implicit93,Neville Sampson,1-493-797-1977,orci.tincidunt@icloud.edu,Ap #814-9721 Dolor Ave,Bear
5B73FBC3-2730-D6DD-7ED8-BB54B57996AE,implicit94,"Joyner, Leroy T.",7533225172,tristique.senectus@icloud.com,Ap #781-6744 Nibh. Rd.,Birmingham
5C0E1C92-D5A7-CB7F-5768-93AC972D084E,implicit95,"Owens, Blake A.",3833713513,enim.sit@protonmail.couk,"P.O. Box 489, 5413 Aliquam Rd.",Springdale
510013CD-C4CA-CD6C-7F5F-FDEDA9A88619,implicit96,Reece Bender,5798459586,ante@protonmail.ca,"Ap #838-6797 Ante, St.",Milwaukee
1AE4A1E2-8D75-FC3E-DDFB-6EC528B1DEEE,implicit97,"Ray, Shana",(774) 447-4442,ipsum.dolor@aol.net,9402 Ante. St.,Springfield
6CF4D46D-6C91-EAE6-C4E1-9783EA7DD97A,implicit98,"Wise, Zenia B.",(637) 319-5345,quisque.ornare@google.com,Ap #735-2555 Eu Rd.,Newark
2C0AA415-F594-E770-8C8E-0628D38E2884,implicit99,Magee Gilmore,(955) 517-3771,mollis.phasellus@hotmail.ca,Ap #894-2865 Suspendisse Av.,Covington
D8A72D6E-1BBE-45E3-B15C-8A63D756C6A8,implicit100,Shad W. Campbell,(955) 517-3771,pharetra.nam@google.ca,303-7563 Commodo Avenue,Hattiesburg
EF1DA505-DE44-A287-5CAD-14445843E937,implicit101,Adrian Miranda,3235638563,sit.amet@protonmail.net,Ap #551-2879 Suspendisse Avenue,Salem
5C6B9590-92C7-75DA-68E9-75203C06B837,implicit102,William X. Bean,1-235-321-3339,ac@outlook.net,Ap #117-5214 Ornare Road,Chattanooga
1E32C0EC-AE63-CAAE-C69B-16689E72DE48,implicit103,Amal Warren,(830) 837-9777,nec.malesuada.ut@aol.couk,Ap #316-6332 Mauris Ave,Juneau
7C488E5B-5449-8455-2787-901F22A76319,implicit104,Pandora Lewis,7646257987,eu.placerat.eget@hotmail.com,9574 Arcu. Street,San Antonio
6E58D522-368E-7E23-2D72-713233DDA20F,implicit105,Montana K. Gaines,(828) 764-4567,pharetra@protonmail.couk,379-7367 Lacus. Av.,Fairbanks
EE20CADD-CA1C-F5A9-8531-EE96DB57F213,implicit106,"Mcmahon, Yasir",1-454-456-4583,elit.pellentesque@icloud.edu,7367 Lacus. St.,Olympia
17FA62F9-B215-BCCD-0647-1695EB23C8DE,implicit107,Cole Bruce,9621754343,magna.ut@outlook.net,8788 Est Rd.,Gary
62D36BE5-13FC-C976-06D3-8E9184524115,implicit108,Indira U. Stanley,1-135-151-7984,orci.tincidunt@outlook.couk,Ap #590-7789 Convallis Rd.,Orlando
B1D58468-5848-8E97-A71B-CEAF51C2EACB,implicit109,"Durham, Ocean",,et.ultrices.posuere@outlook.org,Ap #759-1517 Pellentesque St.,New Orleans
207BE332-C7E2-E1AD-109D-E42E86564C95,implicit110,"Mcgee, Jelani",7591977333,aliquet.libero.integer@google.net,445-9715 Quisque Avenue,Great Falls
F89C2382-9D60-8BED-57BC-74C2422CB975,implicit111,"Haley, Lucas",1-868-536-2386,magna@outlook.com,402-4867 Sed Rd.,Auburn
F88B6522-32AC-7D59-8573-616F77C35E7D,implicit112,Selma N. Cherry,1-242-737-1591,tellus@google.org,Ap #535-2445 Luctus Ave,Orlando
EBF83446-BEB1-FA0C-C9DD-85A1F505BCCD,implicit113,Hannah T. Foster,(352) 831-4263,non.nisi@aol.couk,869-2346 Nisi. Rd.,South Portland
8E9D329B-3449-3A5B-71D1-CAE83E680B62,implicit114,"Herrera, Marny F.",(856) 933-6250,dictum.sapien@google.net,Ap #489-9876 Quam Rd.,Kailua
45E7A211-748A-A75B-9DA6-64D78043CEFB,implicit115,Thor Ware,(874) 787-4662,ut@hotmail.com,Ap #506-1090 Tellus. Ave,Grand Rapids
4A3E02E7-393A-C212-091C-2E9B56713A19,implicit116,Felix Holland,(803) 536-3838,fermentum.arcu.vestibulum@icloud.net,Ap #760-2128 Blandit Rd.,Fort Wayne
DE784A2A-916B-30A1-E9AB-A2AD771C218E,implicit117,Rana Ballard,1-636-571-5828,enim.nec.tempus@google.couk,Ap #570-9149 Adipiscing Rd.,Fort Smith
ABC7BBCA-58B0-6343-DDB2-C9B613656D65,implicit118,"Manning, Denise A.",3664272635,neque.venenatis@icloud.org,Ap #835-584 Eget Rd.,Colorado Springs
D66058C8-71CC-AF02-99BC-4ECB1ACE7F6C,implicit119,Dillon Maldonado,1-931-506-9439,dapibus.rutrum@icloud.net,"Ap #151-8949 A, Street",Columbus
1738B992-497C-4EAB-338C-7256FE76A44E,implicit120,"Hoover, Marny",1-668-345-6901,auctor.nunc.nulla@protonmail.com,Ap #984-4471 Scelerisque Street,Lewiston
31C565B2-BB65-943A-16B6-B8218481CE43,implicit121,Zephr R. Richardson,(985) 515-3362,vel.lectus.cum@aol.couk,Ap #249-5907 Felis St.,Juneau
BDB23955-ABEE-C334-4093-8B824CD3CFB8,implicit122,"Kirk, Vance D.",(128) 287-7378,commodo.hendrerit@aol.net,Ap #498-2812 A St.,New Orleans
5E905BB1-E9AB-B579-8780-0BC46283358C,implicit123,Rae Manning,4383839908,sodales.elit@aol.net,2568 Quisque St.,Idaho Falls
3B07489D-FD69-1A20-4E2C-C986093C819A,implicit124,"O'Neill, Justina",(716) 264-3164,tincidunt.aliquam.arcu@icloud.couk,Ap #946-9469 Non Street,Duluth
957BEA48-C7C3-DA92-55DD-38BB71E9C039,implicit125,Anne Cannon,(285) 337-9127,metus.vitae@yahoo.couk,628-9283 Nunc Av.,Milwaukee
CD64729A-A39D-40DE-10FB-3747AE4429DE,implicit126,Shafira Warner,2680332682,eu.arcu@hotmail.org,Ap #539-348 Quisque St.,Ketchikan
D429AE6A-364E-A3A9-218A-3291C75E2DD6,implicit127,"Rice, Uta D.",7837634451,laoreet@aol.net,Ap #245-8750 Risus Street,Miami
CBB1DB8D-D853-013E-BE44-E92B384B6B5D,implicit128,Quin Garrison,1-488-363-5378,sodales@outlook.org,Ap #416-6248 Purus. Road,Tulsa
693C21A6-311B-ACA5-2B25-FB82E2C988DB,implicit129,"Silva, Josiah",(286) 258-5247,sit.amet@aol.net,"Ap #356-7752 Amet, Ave",San Francisco
EABB7BEC-69E5-3A37-C3BC-75E30CD1A176,implicit130,"Kelly, Arsenio I.",(908) 234-7653,in@hotmail.org,587-6029 Lobortis Av.,Nashville
3075A38A-51B4-A511-90E8-4D7687DE7E06,implicit131,"Frost, Naida K.",2482541836,lectus.pede@icloud.edu,"P.O. Box 603, 5780 Ullamcorper. Rd.",Pittsburgh
97AED71C-E7C4-24E4-5636-3B0D8994F42A,implicit132,Oren Frost,1-358-825-3536,nisi.dictum@google.couk,470-2389 Mauris Avenue,Colchester
8579F3AB-3908-FB46-E08B-917D1F939054,implicit133,"Perez, Danielle",9303926261,nunc.est@google.com,9269 Id Av.,Mobile
A1A293BA-41CB-6721-3C65-4BED363989A1,implicit134,"Fields, Josephine J.",6933659779,sed.consequat@outlook.edu,6083 Malesuada. Av.,Bellevue
7CBD440E-895B-A562-6F6D-D7CA86514AB2,implicit135,Christen G. Mcmahon,1-285-346-9522,nec.diam@icloud.com,890-6428 Lorem Street,Spokane
7A91A569-4460-449B-9C27-08AA7727B571,implicit136,"Clayton, Jason",(666) 929-1223,et.netus@outlook.com,302-1842 Nunc Rd.,Norman
BDEE962F-7458-BA25-436B-E91939A244A1,implicit137,"Mayo, Darius P.",8393671328,aliquam.arcu.aliquam@hotmail.ca,534-226 Dictum Street,Newark
A49B12E9-B4D4-9737-B0D5-8B3F8AA2D2C2,implicit138,"Becker, Venus",1-681-775-5124,amet.luctus.vulputate@outlook.couk,Ap #203-3913 Ornare. St.,Allentown
A841F228-059B-4955-70D5-0E18C47F0758,implicit139,"Hill, Tanisha H.",1183378265,sollicitudin.adipiscing@aol.couk,2419 Feugiat Road,Hilo
747B0EB3-3620-A937-72CD-2A2DEC133EB0,implicit140,Richard W. Harris,9322678334,aliquam@protonmail.edu,7207 Sagittis Av.,Newport News
C3DB8771-C2A0-5F58-D424-29397A351926,implicit141,Tatyana D. Benson,(516) 762-4556,felis.eget@icloud.org,342 Consequat Avenue,West Jordan
574EA60D-BA94-0BE5-411F-18A6AF7D7B92,implicit142,"Cook, Dane C.",5657375928,maecenas.iaculis.aliquet@aol.org,Ap #353-1341 Aliquam Street,Rochester
D3B062FF-822A-4261-F6E1-5BDB4A43A649,implicit143,Peter E. James,1-727-215-7583,malesuada.id.erat@google.edu,"P.O. Box 224, 4170 Fermentum Rd.",Bellevue
5E8E18B9-C8C1-8B6D-9ECA-E326317BCBE0,implicit144,Theodore Parrish,(343) 824-4632,vivamus.non@google.net,590-9968 Adipiscing St.,Billings
961E993A-4C9C-9069-D82C-CDC8E84576AC,implicit145,Hector Wiley,6562238713,integer.vitae@outlook.net,308-9897 Fringilla Road,Erie
4BC5486C-48D0-4D26-8286-19A20D3CCB1F,implicit146,"Cantu, Nyssa",(676) 156-7394,ac.sem.ut@outlook.org,5157 Mauris Street,Little Rock
4EA69ACD-EBEE-7237-7B29-7262A1BB0369,implicit147,Olivia I. Mayer,(363) 948-7626,ultricies.ligula@outlook.couk,Ap #378-6416 Phasellus Av.,Newport News
B4AA1D65-F83D-B30D-2619-51C9CE594655,implicit148,"Crawford, Kato",1-225-755-2462,proin.velit@yahoo.edu,8771 Non Avenue,Virginia Beach
DD88B732-CB17-86C3-5129-4BCD7BAE643C,implicit149,"Stone, Ishmael A.",(616) 445-5247,ac.risus.morbi@protonmail.com,6090 Eget Road,West Valley City
8376DE78-1B35-D2E7-4AD2-A03C817D9783,implicit150,Jocelyn K. Whitney,1-316-670-7917,commodo@aol.ca,217-2553 Libero Rd.,Fairbanks
31C6E838-E447-D0B8-6393-CFD051BEDC8A,implicit151,Bradley Huffman,4688167181,accumsan.interdum.libero@icloud.ca,222-8311 Consectetuer Av.,Frankfort
2E512265-42A8-D18E-35AA-4D985CF5E685,implicit152,Aspen Santiago,1649250181,pretium.aliquet.metus@yahoo.edu,Ap #526-1975 Sit St.,Denver
61786183-5586-48FC-382A-13446CF1E725,implicit153,"Park, Cassady",(736) 826-1313,ut.molestie@hotmail.com,"670-6856 Lorem, Ave",Hartford
9FA984B2-E306-C79A-A805-446EC87A8A81,implicit154,Aladdin Flores,1-643-656-6423,blandit.mattis@icloud.net,875-3322 Arcu Street,Columbia
7695ABF2-8B15-C4BA-D85A-D8E79A74BC38,implicit155,"Robles, Odessa N.",(817) 560-2584,sodales.elit.erat@protonmail.com,6063 Dui. Avenue,Anchorage
2EF864D7-33FB-D17B-3675-20E3BA48A89E,implicit156,Hilary Barrett,7613772410,dolor.egestas@google.couk,Ap #350-1487 Laoreet Street,Covington
B7BCD3AA-5A1F-C4BB-13D7-A1993994985A,implicit157,"Mckenzie, Bruce",3644781135,suspendisse@google.com,444-7136 Sit Ave,Little Rock
D1972850-78EB-8017-E7EE-E0DB48E58938,implicit158,"Thomas, Fitzgerald",1-873-863-2987,eget.ipsum@icloud.ca,4588 Quis Av.,West Jordan
BF17E4E5-E2C6-43B2-D815-B51B5E5A47D0,implicit159,Jillian I. Mcknight,(947) 645-9241,vehicula@protonmail.org,534-4901 Risus. Road,Sterling Heights
B7D89346-968A-A885-61A8-E89FAF583CDB,implicit160,"Durham, Keaton L.",1-485-761-0016,scelerisque.mollis@icloud.edu,178-7704 Ante Ave,Aurora
90180E60-DDF1-03FB-C2A9-3D15C760C244,implicit161,Aspen Hughes,8656475721,curabitur.vel@hotmail.org,820-7894 Sagittis Street,Aurora
35F56131-A734-3B1C-6D78-E99C89A18CE5,implicit162,"Kirkland, Dahlia J.",(450) 267-7108,scelerisque@yahoo.ca,5561 Urna Avenue,Bear
C8177AD8-436E-7BBA-2DAE-ED1DAE92991B,implicit163,"Barr, Lamar",8388848663,consequat@aol.edu,"P.O. Box 120, 9785 Diam. Avenue",Denver
8EB85E1A-06AE-3908-C54C-B42E9C4F4BA5,implicit164,Rinah W. Burris,1-445-239-1212,est@outlook.net,Ap #315-2647 Tincidunt St.,Warren
E10F7350-9B08-89D2-26B2-4C96BDD9D98D,implicit165,Plato Griffith,1-728-473-5784,aliquam.enim@icloud.couk,361-4498 Cum Road,Saint Louis
2C4B72E8-D489-A44B-23E8-4B1C8E7C7846,implicit166,Fletcher Callahan,1-373-594-1705,urna@hotmail.com,"P.O. Box 703, 9984 Fringilla Avenue",Toledo
E9F1C81A-C315-69F2-2496-8C2D1ABB0732,implicit167,"Washington, Kylynn P.",(444) 739-5647,erat.neque@yahoo.com,"P.O. Box 177, 4511 Montes, Avenue",Springfield
D23E635A-DBCE-078C-606E-389E6789A377,implicit168,"Hopper, Lacey",1-837-822-2784,quis.diam.luctus@icloud.ca,Ap #663-3161 Blandit Rd.,Fayetteville
EF8FA12E-7DB9-6989-D7A8-727DA97109D2,implicit169,Zephania U. Fuller,(536) 667-6446,metus@google.edu,579-6862 Nullam St.,Green Bay
D9723747-27E8-8BFE-682D-0AC6B6B0B1E2,implicit170,Victor Mcconnell,(248) 193-4485,non.dui@yahoo.net,"P.O. Box 844, 1528 Nisi. Av.",Aurora
F9542128-1356-7515-17BE-8ADD398D1E94,implicit171,Gail K. Alvarez,(659) 153-4213,pellentesque.ultricies@protonmail.ca,"7390 A, Rd.",Kailua
CDE434DE-CC4E-B432-2563-5C789F499ECD,implicit172,Asher E. Salazar,(868) 374-4525,facilisis.magna@aol.edu,Ap #856-1613 Primis Av.,Jefferson City
33A5464C-2AB9-77F3-5B22-A60CE9647846,implicit173,Amber J. O'brien,(411) 281-0798,integer.mollis@yahoo.edu,Ap #591-9062 Primis St.,Mesa
AF8DB866-5F5C-689C-33E3-57FEA24A2D89,implicit174,"Lynch, Blake U.",1-623-884-5075,velit@hotmail.org,346-1615 Pretium Av.,Anchorage
D5625BCC-342D-AE1A-302E-BFC79D5DEFA8,implicit175,"Christensen, Sybil F.",(424) 389-8730,accumsan@google.net,9506 Sit Street,Springdale
AD77A69C-A8DA-814E-FE31-1ACC61FD3289,implicit176,Chadwick Lester,1-934-531-5267,a@aol.org,5456 Morbi St.,Aurora
6BBCDB1A-A3D3-55E3-CFCA-58CE9F7DFE7A,implicit177,Samuel Hebert,(677) 823-8601,a@protonmail.net,"P.O. Box 720, 9423 Gravida. Rd.",Shreveport
719111C2-D861-9C19-1ACB-10424B39841C,implicit178,"Burgess, Lareina",5652758622,tempor@protonmail.couk,"418-3541 A, Ave",Joliet
87E9C783-4F34-26A6-C6D8-987869743BBD,implicit179,Calista Yang,1-345-337-1636,adipiscing.fringilla@icloud.ca,3072 Vivamus Rd.,Overland Park
340F58AE-B54D-DCB4-3BD1-918D4E1E6269,implicit180,Arsenio G. Roth,8332502608,velit.sed@icloud.edu,6635 Pellentesque Road,Jackson
81394124-3EE0-4927-EC22-5EA87B61DC8D,implicit181,"Hall, Rina",3480443786,varius.orci.in@hotmail.com,930 Purus. Street,Miami
1524D330-2856-61C3-91DB-1BD427B441DD,implicit182,Neil O. Lang,6918457361,turpis.egestas@hotmail.couk,Ap #221-453 At Road,Wyoming
B83A1173-2795-1489-C014-C9E6360FDE8A,implicit183,Steven V. Weaver,(243) 588-0577,fusce.mi@google.ca,1050 Cursus Avenue,Huntsville
F6B751FD-C554-DE23-1773-1985B31B2087,implicit184,Thaddeus S. Kaufman,4061782148,libero.proin@outlook.net,646-8216 Erat. Ave,Rockville
031BE968-D1A9-E240-4683-EFC38FE677CA,implicit185,Jescie D. Marsh,1-637-385-9580,turpis.nec@protonmail.org,846-9920 Aliquam St.,Essex
358DC6C7-B493-C577-CB4A-90F60A19DFCB,implicit186,Fitzgerald Farmer,7067428653,varius.orci@google.edu,"Ap #817-6062 Montes, Rd.",Provo
EF36B8A7-A60F-8C67-3E68-AECE9ADDD68F,implicit187,Vivian May,1-447-354-3388,at.pede.cras@yahoo.com,3339 Vel Ave,Fayetteville
42D57D34-89AE-EAE6-AD7B-A4B11337BB8D,implicit188,Christopher I. Holland,1-907-841-2216,aliquam.arcu.aliquam@aol.edu,2081 Justo. Rd.,Kapolei
7A546C5C-E65D-142E-6B80-18F6C8A94C20,implicit189,"Davidson, Lysandra",(770) 528-1441,mollis.lectus@protonmail.couk,"772-3871 Vestibulum, Rd.",Georgia
3245EEA1-292E-BE6B-C97B-F159D2CF1C15,implicit190,"Conley, Grant",1-437-414-8015,a.sollicitudin@aol.ca,"P.O. Box 885, 3805 Sit Rd.",Dallas
AA974685-7ACE-2789-26D4-04DB2E73FA2A,implicit191,"Snyder, Zorita",(755) 266-8290,nulla@outlook.net,271-6203 Nam Rd.,Virginia Beach
32448E74-826A-13EF-103C-C95637D9DCED,implicit192,Neville Sampson,6451145645,orci.tincidunt@icloud.edu,Ap #814-9721 Dolor Ave,Bear
5B73FBC3-2730-D6DD-7ED8-BB54B57996AE,implicit193,"Joyner, Leroy T.",1-493-797-1977,tristique.senectus@icloud.com,Ap #781-6744 Nibh. Rd.,Birmingham
5C0E1C92-D5A7-CB7F-5768-93AC972D084E,implicit194,"Owens, Blake A.",7533225172,enim.sit@protonmail.couk,"P.O. Box 489, 5413 Aliquam Rd.",Springdale
510013CD-C4CA-CD6C-7F5F-FDEDA9A88619,implicit195,Reece Bender,3833713513,ante@protonmail.ca,"Ap #838-6797 Ante, St.",Milwaukee
1AE4A1E2-8D75-FC3E-DDFB-6EC528B1DEEE,implicit196,"Ray, Shana",5798459586,ipsum.dolor@aol.net,9402 Ante. St.,Springfield
6CF4D46D-6C91-EAE6-C4E1-9783EA7DD97A,implicit197,"Wise, Zenia B.",(774) 447-4442,quisque.ornare@google.com,Ap #735-2555 Eu Rd.,Newark
2C0AA415-F594-E770-8C8E-0628D38E2884,implicit198,Magee Gilmore,(637) 319-5345,mollis.phasellus@hotmail.ca,Ap #894-2865 Suspendisse Av.,Covington
,,,,,,
,,,,,,
,,,,,,
,,,,,,
,,,,,,
,,,,,,
,,,,,,
,,,,,,
,,,,,,
,,,,,,
,,,,,,
,,,,,,
,,,,,,
,,,,,,
,,,,,,
,,,,,,
,,,,,,
,,,,,,
,,,,,,
,,,,,,
,,,,,,
,,,,,,
,,,,,,
,,,,,,
,,,,,,
,,,,,,
,,,,,,
,,,,,,
,,,,,,
,,,,,,
,,,,,,
,,,,,,
,,,,,,
,,,,,,
,,,,,,
,,,,,,
,,,,,,
,,,,,,
,,,,,,
,,,,,,
,,,,,,
,,,,,,
,,,,,,
,,,,,,
,,,,,,
,,,,,,
,,,,,,
,,,,,,
,,,,,,
,,,,,,
,,,,,,
,,,,,,
,,,,,,
,,,,,,
,,,,,,
,,,,,,
,,,,,,
,,,,,,
,,,,,,
,,,,,,
,,,,,,
,,,,,,
,,,,,,
,,,,,,
,,,,,,
,,,,,,
,,,,,,
,,,,,,
,,,,,,
,,,,,,
,,,,,,
,,,,,,
,,,,,,
,,,,,,
,,,,,,
,,,,,,
,,,,,,
,,,,,,
,,,,,,
,,,,,,
,,,,,,
,,,,,,
,,,,,,
,,,,,,
,,,,,,
,,,,,,
,,,,,,
,,,,,,
,,,,,,
,,,,,,
,,,,,,
,,,,,,
,,,,,,
,,,,,,
,,,,,,
,,,,,,
,,,,,,
,,,,,,
,,,,,,
,,,,,,
,,,,,,
,,,,,,
,,,,,,
,,,,,,
,,,,,,
,,,,,,
,,,,,,
,,,,,,
,,,,,,
,,,,,,
,,,,,,
,,,,,,
,,,,,,
,,,,,,
,,,,,,
,,,,,,
,,,,,,
,,,,,,
,,,,,,
,,,,,,
,,,,,,
,,,,,,
,,,,,,
,,,,,,
,,,,,,
,,,,,,
,,,,,,
,,,,,,
,,,,,,
,,,,,,
,,,,,,
,,,,,,
,,,,,,
,,,,,,
,,,,,,
,,,,,,
,,,,,,
,,,,,,
,,,,,,
,,,,,,
,,,,,,
,,,,,,
,,,,,,
,,,,,,
,,,,,,
,,,,,,
,,,,,,
,,,,,,
,,,,,,
,,,,,,
,,,,,,
,,,,,,
,,,,,,
,,,,,,
,,,,,,
,,,,,,
,,,,,,
,,,,,,
,,,,,,
,,,,,,
,,,,,,
,,,,,,
,,,,,,
,,,,,,
,,,,,,
,,,,,,
,,,,,,
,,,,,,
,,,,,,
,,,,,,
,,,,,,
,,,,,,
,,,,,,
,,,,,,
,,,,,,
,,,,,,
,,,,,,
,,,,,,
,,,,,,
,,,,,,
,,,,,,
,,,,,,
,,,,,,
,,,,,,
,,,,,,
,,,,,,
,,,,,,
,,,,,,
,,,,,,
,,,,,,
,,,,,,
,,,,,,
,,,,,,
,,,,,,
,,,,,,
,,,,,,
,,,,,,
,,,,,,
,,,,,,
,,,,,,
,,,,,,
,,,,,,
,,,,,,
,,,,,,
,,,,,,
,,,,,,
,,,,,,
,,,,,,
,,,,,,
,,,,,,
,,,,,,
,,,,,,
,,,,,,
,,,,,,
,,,,,,
,,,,,,
,,,,,,
,,,,,,
,,,,,,
,,,,,,
,,,,,,
,,,,,,
,,,,,,
,,,,,,
,,,,,,
,,,,,,